{
  "type": "FeatureCollection",
  "features": [
    {
      "type": "Feature",
      "properties": {
        "norad_id": 67096,
        "name": "STARLINK-36228",
        "group": "last-30-days",
        "lat": 15.244200469171671,
        "lon": -131.97346642111756,
        "alt_km": 304.3063379051782,
        "timestamp": "2025-12-22T11:33:19.158501+00:00",
        "meta_object_name": "STARLINK-36228",
        "meta_object_id": "2025-298X",
        "meta_epoch": "2025-12-22T04:00:01.998720",
        "meta_mean_motion": 15.89554718,
        "meta_eccentricity": 0.00042,
        "meta_inclination": 69.9968,
        "meta_ra_of_asc_node": 223.2395,
        "meta_arg_of_pericenter": 272.7612,
        "meta_mean_anomaly": 102.754,
        "meta_ephemeris_type": 0,
        "meta_classification_type": "U",
        "meta_norad_cat_id": 67096,
        "meta_element_set_no": 999,
        "meta_rev_at_epoch": 243,
        "meta_bstar": 0.00045992,
        "meta_mean_motion_dot": 0.00133898,
        "meta_mean_motion_ddot": 1.0282e-05,
        "tle_line1": "1 67096U 25298X   25356.16668980  .00133898  10282-4  45992-3 0  9990",
        "tle_line2": "2 67096  69.9968 223.2395 0004200 272.7612 102.7540 15.89554718  2437"
      },
      "geometry": {
        "type": "Point",
        "coordinates": [
          -131.97346642111756,
          15.244200469171671
        ]
      }
    },
    {
      "type": "Feature",
      "properties": {
        "norad_id": 67097,
        "name": "STARLINK-36222",
        "group": "last-30-days",
        "lat": 17.070304443317315,
        "lon": -131.2505786679765,
        "alt_km": 304.0077317607911,
        "timestamp": "2025-12-22T11:33:19.158513+00:00",
        "meta_object_name": "STARLINK-36222",
        "meta_object_id": "2025-298Y",
        "meta_epoch": "2025-12-22T04:00:01.998720",
        "meta_mean_motion": 15.89574261,
        "meta_eccentricity": 0.0004452,
        "meta_inclination": 69.9968,
        "meta_ra_of_asc_node": 223.2372,
        "meta_arg_of_pericenter": 273.4827,
        "meta_mean_anomaly": 103.948,
        "meta_ephemeris_type": 0,
        "meta_classification_type": "U",
        "meta_norad_cat_id": 67097,
        "meta_element_set_no": 999,
        "meta_rev_at_epoch": 243,
        "meta_bstar": 0.00057984,
        "meta_mean_motion_dot": 0.00169307,
        "meta_mean_motion_ddot": 1.4132e-05,
        "tle_line1": "1 67097U 25298Y   25356.16668980  .00169307  14132-4  57984-3 0  9997",
        "tle_line2": "2 67097  69.9968 223.2372 0004452 273.4827 103.9480 15.89574261  2439"
      },
      "geometry": {
        "type": "Point",
        "coordinates": [
          -131.2505786679765,
          17.070304443317315
        ]
      }
    },
    {
      "type": "Feature",
      "properties": {
        "norad_id": 67098,
        "name": "STARLINK-36205",
        "group": "last-30-days",
        "lat": 19.12770017843519,
        "lon": -130.41744329976,
        "alt_km": 303.6087866505932,
        "timestamp": "2025-12-22T11:33:19.158537+00:00",
        "meta_object_name": "STARLINK-36205",
        "meta_object_id": "2025-298Z",
        "meta_epoch": "2025-12-22T04:00:01.998720",
        "meta_mean_motion": 15.89863337,
        "meta_eccentricity": 0.0003325,
        "meta_inclination": 69.9966,
        "meta_ra_of_asc_node": 223.2348,
        "meta_arg_of_pericenter": 272.5278,
        "meta_mean_anomaly": 106.9609,
        "meta_ephemeris_type": 0,
        "meta_classification_type": "U",
        "meta_norad_cat_id": 67098,
        "meta_element_set_no": 999,
        "meta_rev_at_epoch": 249,
        "meta_bstar": -0.0010101,
        "meta_mean_motion_dot": -0.00302473,
        "meta_mean_motion_ddot": 3.3345e-05,
        "tle_line1": "1 67098U 25298Z   25356.16668980 -.00302473  33345-4 -10101-2 0  9999",
        "tle_line2": "2 67098  69.9966 223.2348 0003325 272.5278 106.9609 15.89863337  2496"
      },
      "geometry": {
        "type": "Point",
        "coordinates": [
          -130.41744329976,
          19.12770017843519
        ]
      }
    },
    {
      "type": "Feature",
      "properties": {
        "norad_id": 67099,
        "name": "STARLINK-36193",
        "group": "last-30-days",
        "lat": 22.297994106639155,
        "lon": -129.08809478181104,
        "alt_km": 302.6793427545281,
        "timestamp": "2025-12-22T11:33:19.158558+00:00",
        "meta_object_name": "STARLINK-36193",
        "meta_object_id": "2025-298AA",
        "meta_epoch": "2025-12-22T04:00:01.998720",
        "meta_mean_motion": 15.89953327,
        "meta_eccentricity": 0.0003443,
        "meta_inclination": 69.9967,
        "meta_ra_of_asc_node": 223.231,
        "meta_arg_of_pericenter": 277.739,
        "meta_mean_anomaly": 105.0239,
        "meta_ephemeris_type": 0,
        "meta_classification_type": "U",
        "meta_norad_cat_id": 67099,
        "meta_element_set_no": 999,
        "meta_rev_at_epoch": 243,
        "meta_bstar": -0.00076493,
        "meta_mean_motion_dot": -0.00230451,
        "meta_mean_motion_ddot": 2.1177e-05,
        "tle_line1": "1 67099U 25298AA  25356.16668980 -.00230451  21177-4 -76493-3 0  9993",
        "tle_line2": "2 67099  69.9967 223.2310 0003443 277.7390 105.0239 15.89953327  2432"
      },
      "geometry": {
        "type": "Point",
        "coordinates": [
          -129.08809478181104,
          22.297994106639155
        ]
      }
    },
    {
      "type": "Feature",
      "properties": {
        "norad_id": 67100,
        "name": "STARLINK-36215",
        "group": "last-30-days",
        "lat": 24.028352425285373,
        "lon": -128.33540205248406,
        "alt_km": 302.630014078215,
        "timestamp": "2025-12-22T11:33:19.158574+00:00",
        "meta_object_name": "STARLINK-36215",
        "meta_object_id": "2025-298AB",
        "meta_epoch": "2025-12-22T04:00:01.998720",
        "meta_mean_motion": 15.90076884,
        "meta_eccentricity": 0.0003394,
        "meta_inclination": 69.9967,
        "meta_ra_of_asc_node": 223.2287,
        "meta_arg_of_pericenter": 270.7339,
        "meta_mean_anomaly": 113.8079,
        "meta_ephemeris_type": 0,
        "meta_classification_type": "U",
        "meta_norad_cat_id": 67100,
        "meta_element_set_no": 999,
        "meta_rev_at_epoch": 249,
        "meta_bstar": -0.0012596,
        "meta_mean_motion_dot": -0.00380904,
        "meta_mean_motion_ddot": 5.0177e-05,
        "tle_line1": "1 67100U 25298AB  25356.16668980 -.00380904  50177-4 -12596-2 0  9990",
        "tle_line2": "2 67100  69.9967 223.2287 0003394 270.7339 113.8079 15.90076884  2490"
      },
      "geometry": {
        "type": "Point",
        "coordinates": [
          -128.33540205248406,
          24.028352425285373
        ]
      }
    },
    {
      "type": "Feature",
      "properties": {
        "norad_id": 67101,
        "name": "STARLINK-36200",
        "group": "last-30-days",
        "lat": 20.72774723279308,
        "lon": -129.75394316158398,
        "alt_km": 303.10562726446096,
        "timestamp": "2025-12-22T11:33:19.158585+00:00",
        "meta_object_name": "STARLINK-36200",
        "meta_object_id": "2025-298AC",
        "meta_epoch": "2025-12-22T04:00:01.998720",
        "meta_mean_motion": 15.89971656,
        "meta_eccentricity": 0.0003628,
        "meta_inclination": 69.9971,
        "meta_ra_of_asc_node": 223.2332,
        "meta_arg_of_pericenter": 276.399,
        "meta_mean_anomaly": 104.6961,
        "meta_ephemeris_type": 0,
        "meta_classification_type": "U",
        "meta_norad_cat_id": 67101,
        "meta_element_set_no": 999,
        "meta_rev_at_epoch": 249,
        "meta_bstar": -0.001159,
        "meta_mean_motion_dot": -0.00348768,
        "meta_mean_motion_ddot": 4.2836e-05,
        "tle_line1": "1 67101U 25298AC  25356.16668980 -.00348768  42836-4 -11590-2 0  9999",
        "tle_line2": "2 67101  69.9971 223.2332 0003628 276.3990 104.6961 15.89971656  2499"
      },
      "geometry": {
        "type": "Point",
        "coordinates": [
          -129.75394316158398,
          20.72774723279308
        ]
      }
    },
    {
      "type": "Feature",
      "properties": {
        "norad_id": 67102,
        "name": "STARLINK-36255",
        "group": "last-30-days",
        "lat": -10.36704550455601,
        "lon": 88.47129478142982,
        "alt_km": 292.3428900058034,
        "timestamp": "2025-12-22T11:33:19.158595+00:00",
        "meta_object_name": "STARLINK-36255",
        "meta_object_id": "2025-299A",
        "meta_epoch": "2025-12-22T04:00:01.998720",
        "meta_mean_motion": 15.93861932,
        "meta_eccentricity": 0.0001701,
        "meta_inclination": 42.9987,
        "meta_ra_of_asc_node": 259.1126,
        "meta_arg_of_pericenter": 271.43,
        "meta_mean_anomaly": 275.3903,
        "meta_ephemeris_type": 0,
        "meta_classification_type": "U",
        "meta_norad_cat_id": 67102,
        "meta_element_set_no": 999,
        "meta_rev_at_epoch": 232,
        "meta_bstar": -0.0001137,
        "meta_mean_motion_dot": -0.00045888,
        "meta_mean_motion_ddot": 9.0431e-06,
        "tle_line1": "1 67102U 25299A   25356.16668980 -.00045888  90431-5 -11370-3 0  9990",
        "tle_line2": "2 67102  42.9987 259.1126 0001701 271.4300 275.3903 15.93861932  2322"
      },
      "geometry": {
        "type": "Point",
        "coordinates": [
          88.47129478142982,
          -10.36704550455601
        ]
      }
    }
  ]
}